{
  "type": "FeatureCollection",
  "features": [
    {
      "type": "Feature",
      "properties": {
        "norad_id": 66655,
        "name": "2025-274F",
        "group": "last-30-days",
        "lat": -77.97740886792647,
        "lon": 56.45586412059939,
        "alt_km": 603.0658544770322,
        "timestamp": "2025-12-14T22:38:39.517838+00:00",
        "meta_object_name": "2025-274F",
        "meta_object_id": "2025-274F",
        "meta_epoch": "2025-12-14T06:58:59.589408",
        "meta_mean_motion": 14.91098159,
        "meta_eccentricity": 0.00051945,
        "meta_inclination": 97.7326,
        "meta_ra_of_asc_node": 275.4604,
        "meta_arg_of_pericenter": 12.4612,
        "meta_mean_anomaly": 347.6734,
        "meta_ephemeris_type": 0,
        "meta_classification_type": "U",
        "meta_norad_cat_id": 66655,
        "meta_element_set_no": 999,
        "meta_rev_at_epoch": 263,
        "meta_bstar": 1.941917e-05,
        "meta_mean_motion_dot": 1.37e-06,
        "meta_mean_motion_ddot": 0,
        "tle_line1": "1 66655U 25274F   25348.29096747  .00000137  00000+0  19419-4 0  9992",
        "tle_line2": "2 66655  97.7326 275.4604 0005194  12.4612 347.6734 14.91098159  2639"
      },
      "geometry": {
        "type": "Point",
        "coordinates": [
          56.45586412059939,
          -77.97740886792647
        ]
      }
    },
    {
      "type": "Feature",
      "properties": {
        "norad_id": 66656,
        "name": "2025-274G",
        "group": "last-30-days",
        "lat": -79.48270437706392,
        "lon": -36.7970958802674,
        "alt_km": 590.6063019136163,
        "timestamp": "2025-12-14T22:38:39.517850+00:00",
        "meta_object_name": "2025-274G",
        "meta_object_id": "2025-274G",
        "meta_epoch": "2025-12-14T06:55:20.244864",
        "meta_mean_motion": 14.9228863,
        "meta_eccentricity": 0.00122568,
        "meta_inclination": 97.7389,
        "meta_ra_of_asc_node": 275.4631,
        "meta_arg_of_pericenter": 251.111,
        "meta_mean_anomaly": 108.8781,
        "meta_ephemeris_type": 0,
        "meta_classification_type": "U",
        "meta_norad_cat_id": 66656,
        "meta_element_set_no": 999,
        "meta_rev_at_epoch": 263,
        "meta_bstar": 0.00041521652,
        "meta_mean_motion_dot": 4.189e-05,
        "meta_mean_motion_ddot": 0,
        "tle_line1": "1 66656U 25274G   25348.28842876  .00004189  00000+0  41522-3 0  9994",
        "tle_line2": "2 66656  97.7389 275.4631 0012256 251.1110 108.8781 14.92288630  2636"
      },
      "geometry": {
        "type": "Point",
        "coordinates": [
          -36.7970958802674,
          -79.48270437706392
        ]
      }
    },
    {
      "type": "Feature",
      "properties": {
        "norad_id": 66657,
        "name": "SPIRONE",
        "group": "last-30-days",
        "lat": -69.67958916797593,
        "lon": -62.34443008074576,
        "alt_km": 590.6539338269249,
        "timestamp": "2025-12-14T22:38:39.517862+00:00",
        "meta_object_name": "SPIRONE",
        "meta_object_id": "2025-274H",
        "meta_epoch": "2025-12-14T06:52:18.051456",
        "meta_mean_motion": 14.92467608,
        "meta_eccentricity": 0.0010541,
        "meta_inclination": 97.7387,
        "meta_ra_of_asc_node": 275.4658,
        "meta_arg_of_pericenter": 270.0745,
        "meta_mean_anomaly": 89.9266,
        "meta_ephemeris_type": 0,
        "meta_classification_type": "U",
        "meta_norad_cat_id": 66657,
        "meta_element_set_no": 999,
        "meta_rev_at_epoch": 263,
        "meta_bstar": 0.00041794685,
        "meta_mean_motion_dot": 4.235e-05,
        "meta_mean_motion_ddot": 0,
        "tle_line1": "1 66657U 25274H   25348.28632004  .00004235  00000+0  41795-3 0  9999",
        "tle_line2": "2 66657  97.7387 275.4658 0010541 270.0745  89.9266 14.92467608  2634"
      },
      "geometry": {
        "type": "Point",
        "coordinates": [
          -62.34443008074576,
          -69.67958916797593
        ]
      }
    },
    {
      "type": "Feature",
      "properties": {
        "norad_id": 66658,
        "name": "2025-274J",
        "group": "last-30-days",
        "lat": -58.878047744574815,
        "lon": -70.86754818606,
        "alt_km": 590.0596894077171,
        "timestamp": "2025-12-14T22:38:39.517874+00:00",
        "meta_object_name": "2025-274J",
        "meta_object_id": "2025-274J",
        "meta_epoch": "2025-12-14T06:49:21.043776",
        "meta_mean_motion": 14.92637558,
        "meta_eccentricity": 0.00111658,
        "meta_inclination": 97.7387,
        "meta_ra_of_asc_node": 275.468,
        "meta_arg_of_pericenter": 273.0269,
        "meta_mean_anomaly": 86.9673,
        "meta_ephemeris_type": 0,
        "meta_classification_type": "U",
        "meta_norad_cat_id": 66658,
        "meta_element_set_no": 999,
        "meta_rev_at_epoch": 263,
        "meta_bstar": 0.00040275909,
        "meta_mean_motion_dot": 4.097e-05,
        "meta_mean_motion_ddot": 0,
        "tle_line1": "1 66658U 25274J   25348.28427134  .00004097  00000+0  40276-3 0  9995",
        "tle_line2": "2 66658  97.7387 275.4680 0011165 273.0269  86.9673 14.92637558  2639"
      },
      "geometry": {
        "type": "Point",
        "coordinates": [
          -70.86754818606,
          -58.878047744574815
        ]
      }
    },
    {
      "type": "Feature",
      "properties": {
        "norad_id": 66659,
        "name": "JACK K",
        "group": "last-30-days",
        "lat": -47.00954670220515,
        "lon": -75.49018353301686,
        "alt_km": 589.6133121669382,
        "timestamp": "2025-12-14T22:38:39.517884+00:00",
        "meta_object_name": "JACK K",
        "meta_object_id": "2025-274K",
        "meta_epoch": "2025-12-14T06:46:11.972928",
        "meta_mean_motion": 14.9282178,
        "meta_eccentricity": 0.00119016,
        "meta_inclination": 97.7387,
        "meta_ra_of_asc_node": 275.4715,
        "meta_arg_of_pericenter": 274.5425,
        "meta_mean_anomaly": 85.4434,
        "meta_ephemeris_type": 0,
        "meta_classification_type": "U",
        "meta_norad_cat_id": 66659,
        "meta_element_set_no": 999,
        "meta_rev_at_epoch": 263,
        "meta_bstar": 0.00038735335,
        "meta_mean_motion_dot": 3.957e-05,
        "meta_mean_motion_ddot": 0,
        "tle_line1": "1 66659U 25274K   25348.28208302  .00003957  00000+0  38735-3 0  9991",
        "tle_line2": "2 66659  97.7387 275.4715 0011901 274.5425  85.4434 14.92821780  2638"
      },
      "geometry": {
        "type": "Point",
        "coordinates": [
          -75.49018353301686,
          -47.00954670220515
        ]
      }
    },
    {
      "type": "Feature",
      "properties": {
        "norad_id": 66660,
        "name": "K-HERO",
        "group": "last-30-days",
        "lat": -37.330828046363926,
        "lon": -77.92031108575229,
        "alt_km": 589.4199144825907,
        "timestamp": "2025-12-14T22:38:39.517894+00:00",
        "meta_object_name": "K-HERO",
        "meta_object_id": "2025-274L",
        "meta_epoch": "2025-12-14T06:43:39.323136",
        "meta_mean_motion": 14.92970721,
        "meta_eccentricity": 0.00125171,
        "meta_inclination": 97.7389,
        "meta_ra_of_asc_node": 275.4745,
        "meta_arg_of_pericenter": 275.0183,
        "meta_mean_anomaly": 84.9607,
        "meta_ephemeris_type": 0,
        "meta_classification_type": "U",
        "meta_norad_cat_id": 66660,
        "meta_element_set_no": 999,
        "meta_rev_at_epoch": 263,
        "meta_bstar": 0.00036576832,
        "meta_mean_motion_dot": 3.748e-05,
        "meta_mean_motion_ddot": 0,
        "tle_line1": "1 66660U 25274L   25348.28031624  .00003748  00000+0  36577-3 0  9994",
        "tle_line2": "2 66660  97.7389 275.4745 0012517 275.0183  84.9607 14.92970721  2632"
      },
      "geometry": {
        "type": "Point",
        "coordinates": [
          -77.92031108575229,
          -37.330828046363926
        ]
      }
    },
    {
      "type": "Feature",
      "properties": {
        "norad_id": 66661,
        "name": "SNUGLITE-III",
        "group": "last-30-days",
        "lat": -27.757574652563253,
        "lon": -79.76557759661787,
        "alt_km": 589.1999504658243,
        "timestamp": "2025-12-14T22:38:39.517904+00:00",
        "meta_object_name": "SNUGLITE-III",
        "meta_object_id": "2025-274M",
        "meta_epoch": "2025-12-14T06:41:08.601792",
        "meta_mean_motion": 14.93107895,
        "meta_eccentricity": 0.00132004,
        "meta_inclination": 97.7388,
        "meta_ra_of_asc_node": 275.4762,
        "meta_arg_of_pericenter": 276.291,
        "meta_mean_anomaly": 83.6806,
        "meta_ephemeris_type": 0,
        "meta_classification_type": "U",
        "meta_norad_cat_id": 66661,
        "meta_element_set_no": 999,
        "meta_rev_at_epoch": 263,
        "meta_bstar": 0.0003143956,
        "meta_mean_motion_dot": 3.225e-05,
        "meta_mean_motion_ddot": 0,
        "tle_line1": "1 66661U 25274M   25348.27857178  .00003225  00000+0  31440-3 0  9998",
        "tle_line2": "2 66661  97.7388 275.4762 0013200 276.2910  83.6806 14.93107895  2634"
      },
      "geometry": {
        "type": "Point",
        "coordinates": [
          -79.76557759661787,
          -27.757574652563253
        ]
      }
    }
  ]
}